#cP2010  1  2  0  0  0.00000000      96 ORBIT IGS05 HLM  IGS
## 1564 518400.00000000   900.00000000 55198 0.0000000000000
+   32   G01G02G03G04G05G06G07G08G09G10G11G12G13G14G15G16G17
+        G18G19G20G21G22G23G24G25G26G27G28G29G30G31G32  0  0
+          0  0  0  0  0  0  0  0  0  0  0  0  0  0  0  0  0
+          0  0  0  0  0  0  0  0  0  0  0  0  0  0  0  0  0
+          0  0  0  0  0  0  0  0  0  0  0  0  0  0  0  0  0
++         3  2  3  2  2  3  2  2  2  2  2  2  2  2  2  2  2
++         2  2  2  2  2  2  2  3  2  2  2  2  3  2  2  0  0
++         0  0  0  0  0  0  0  0  0  0  0  0  0  0  0  0  0
++         0  0  0  0  0  0  0  0  0  0  0  0  0  0  0  0  0
++         0  0  0  0  0  0  0  0  0  0  0  0  0  0  0  0  0
%c G  cc GPS ccc cccc cccc cccc cccc ccccc ccccc ccccc ccccc
%c cc cc ccc ccc cccc cccc cccc cccc ccccc ccccc ccccc ccccc
%f  1.2500000  1.025000000  0.00000000000  0.000000000000000
%f  0.0000000  0.000000000  0.00000000000  0.000000000000000
%i    0    0    0    0      0      0      0      0         0
%i    0    0    0    0      0      0      0      0         0
/* FINAL ORBIT COMBINATION FROM WEIGHTED AVERAGE OF:        
/* cod emr esa gfz grg jpl mit ngs sio                      
/* REFERENCED TO IGS TIME (IGST) AND TO WEIGHTED MEAN POLE: 
/* PCV:IGS05_1563 OL/AL:FES2004  NONE     Y  ORB:CMB CLK:CMB
*  2010  1  2 13 30  0.00000000
PG01 -18881.494490  17785.421969  -5534.788864 999999.999999
PG02 -13540.145919 -16224.286145 -16409.010273    210.859055  8  8  4 117       
PG03  24557.706732  10372.344862  -2554.006619    496.372169  6  6  6 133       
PG04  -6803.183537 -24600.661171  -6778.152528   -437.393606  8  4  4  95       
PG05 -18582.694357  -3117.062978 -18769.100864    -21.077953  5  5  5 110       
PG06  22597.169951  13210.842599  -4658.993393    262.148471  6  6  5 127       
PG07   7811.671833 -21288.171617 -13709.329883      4.974341  9  4  6 119       
PG08   1109.570131 -26164.149915  -2123.186409      1.692757  6  3  4 122       
PG09 -14200.190687   3380.691893  21529.242002     97.623277  5  5  4  95       
PG10 -14837.700819  -7884.643086 -20814.573163    -31.781585  6  4  7 137       
PG11  14793.217795  -7957.659446  20292.076965    -37.550288  4  4  5 102       
PG12 -23496.607922  10174.820769   6850.178593   -168.358301  8  2  5 126       
PG13  10118.572347 -10857.761872 -22153.068967    306.655085  8  4  2  87       
PG14   7601.960086  17799.038313  18384.818506     -4.736036  6  4  5  93       
PG15 -24988.332205  -6162.019996   6801.060675   -315.465032  7  7  6 105       
PG16  12913.285593   9038.462609 -21367.919822    -26.153254  7  6  7 133       
PG17  -8899.287915 -18141.109540  17424.007059    117.525103  4  5  5 137       
PG18 -14466.494113  19154.925159  11203.746790     39.043288  7  5  4 123       
PG19  24293.137822   6879.130082   8733.505481     -7.309432  9  6  7  78       
PG20  22407.429008 -13927.981788   2649.913086     64.180406  9  7  5  96       
PG21  -5232.522667  23962.594358  -9058.786232    -31.425820  6  7  6 124       
PG22  -2901.136262  18455.753384  19012.429523    182.506993  2  4  1  76       
PG23  20228.854168  -3211.814405 -17100.075271    383.206417  9  8  7 125       
PG24 -13327.924190  12776.368788 -19075.943843    250.347100  5  6  5 130       
PG25   9657.128011 -16631.034503 -18057.787993     69.972855 10  8  7 170       
PG26  -2286.148841  14726.521673  21382.768564     -6.579798  4  4    114       
PG27 -15292.865623   -104.278403  22418.470375    113.671753  5  6  5 112       
PG28   5575.853775 -18586.023127  18452.724962    -24.096899  6  4  5 122       
PG29 -13945.495579   9052.599046 -20613.120680     86.954345  5  4  7 132       
PG30 -19415.700539  17786.024550  -3609.144222    207.047658  7  7  8 106       
PG31   7653.945271  23778.700572  -8570.008328    -56.754512  5  5  4 142       
PG32  23805.731550  -4924.757539  10675.776781    125.366007  8  7  6 111       
*  2010  1  2 13 45  0.00000000
PG01 -19402.040473  17860.289810  -2719.052110 999999.999999
PG02 -13567.718071 -17981.012065 -14470.137221    210.863188  8  7  5 116       
PG03  24075.931183  10555.646698  -5273.745906    496.376542  5  6  6 135       
PG04  -6537.147790 -25241.615000  -4037.329015   -437.410597  8  4  5  97       
PG05 -16868.156980  -4524.745184 -20051.420127    -21.074213  5  5  5 116       
PG06  21824.924159  13250.158406  -7341.244500    262.146856  6  6  5 126       
PG07   8172.042858 -19624.460293 -15832.935165      4.973883  9  5  6 101       
PG08   1332.485230 -25761.641355  -5031.212666      1.693884  6  3  4 110       
PG09 -14568.252395    802.751751  21537.609831     97.624872  5  6  5 100       
PG10 -12915.155759  -9288.894873 -21480.638953    -31.782201  6  4  6 128       
PG11  15630.163873  -5691.059940  20457.916137    -37.552060  5  4  4 103       
PG12 -22871.201094   9448.682186   9521.557328   -168.353889  7  2  5 123       
PG13  12295.952500  -9698.280173 -21579.949019    306.654992  8  5  3  94       
PG14   5634.353619  16924.322967  19860.133774     -4.732131  5  4  4  97       
PG15 -25458.290214  -6635.930539   4053.120966   -315.463638  7  7  5 104       
PG16  10897.680854  10474.630696 -21807.065862    -26.156897  6  6  7 119       
PG17  -6973.788774 -17391.956707  18983.019993    117.528075  5  5  5 136       
PG18 -15557.691418  19549.152887   8693.933272     39.045746  7  5  4 120       
PG19  24924.701196   7473.149433   6070.229150     -7.311361  9  7  6  83       
PG20  22225.081835 -13384.337982   5414.974613     64.179606  8  7  6  97       
PG21  -5692.177627  22759.202965 -11532.499617    -31.428159  6  6  6 132       
PG22  -4702.622325  19492.564336  17541.580571    182.506531  2  3     89       
PG23  21842.449058  -2338.896371 -15169.972214    383.205833  9  9  7 130       
PG24 -13570.481362  10520.864100 -20218.948146    250.349161  6  6  4 123       
PG25  10209.990316 -14492.630500 -19493.979976     69.981105 10  8  7 170       
PG26  -4606.699158  13584.725834  21792.095224     -6.581806  4  4    119       
PG27 -15665.494993  -2463.108200  22016.849858    113.674236  5  6  6 120       
PG28   7257.819865 -19563.622889  16705.496806    -24.096720  6  5  5 125       
PG29 -15997.156466   7971.612082 -19542.740163     86.957215  5  4  7 135       
PG30 -19751.016292  17703.903277   -776.236283    207.051144  7  7  8 103       
PG31   7530.852420  24650.409565  -5838.199016    -56.753524  6  5  5 131       
PG32  22797.020081  -4044.667636  13087.381698    125.358823  8  6  6 116       
*  2010  1  2 14  0  0.00000000
PG01 -19671.868920  17754.440140    143.737555 999999.999999
PG02 -13641.072162 -19505.956660 -12288.098502    210.867128  8  7  5 125       
PG03  23315.215658  10689.200503  -7905.269547    496.381814  5  6  6 134       
PG04  -6248.965060 -25583.895270  -1225.647829   -437.427830  8  5  5 103       
PG05 -15132.690829  -6100.948576 -20989.888448    -21.070399  5  5  5 115       
PG06  20772.566629  13238.220799  -9897.220117    262.145502  5  6  5 126       
PG07   8657.761185 -17760.582214 -17682.417146      4.973245  9  5  6 107       
PG08   1611.014328 -25044.764548  -7849.885485      1.693968  5  3  4 118       
PG09 -15067.785676  -1729.438651  21151.648011     97.627778  5  6  6 107       
PG10 -11023.267349 -10826.789499 -21784.075447    -31.782476  7  4  6 130       
PG11  16554.444935  -3464.455998  20263.958104    -37.554009  5  4  3 107       
PG12 -22057.800617   8504.965318  12028.229912   -168.349320  7  3  6 115       
PG13  14458.624551  -8700.617117 -20639.798993    306.655108  8  5  4  97       
PG14   3484.088886  16105.850417  20998.829300     -4.728080  4  5  4 106       
PG15 -25655.794008  -6980.922182   1235.886913   -315.462084  7  7  5  95       
PG16   8937.690659  12036.139859 -21869.856625    -26.160608  5  5  6 130       
PG17  -4864.101678 -16686.976751  20219.501487    117.531373  6  5  5 135       
PG18 -16401.164743  19813.691460   6032.709981     39.048007  7  5  3 130       
PG19  25309.099541   7906.051407   3304.324879     -7.313139  9  7  6  94       
PG20  21838.272542 -12628.739208   8086.221017     64.178638  8  7  6  99       
PG21  -6247.851449  21309.180393 -13798.071971    -31.430232  6  6  6 139       
PG22  -6309.398158  20504.453188  15771.632426    182.506159  2  3  1  93       
PG23  23282.883674  -1637.065330 -12982.759353    383.204967  9  9  7 135       
PG24 -13939.546098   8168.891923 -21012.705554    250.353105  6  6  4 122       
PG25  10914.978487 -12243.561644 -20586.629787     69.989371 10  9  6 166       
PG26  -7005.468638  12564.633569  21805.863472     -6.584164  4  4    119       
PG27 -16156.761181  -4735.939046  21259.835630    113.676561  5  6  7 119       
PG28   8722.385788 -20501.464244  14676.239163    -24.096192  7  5  5 115       
PG29 -17971.190197   7050.967038 -18133.151433     86.959735  5  4  6 137       
PG30 -19853.972830  17420.827752   2070.033674    207.055268  7  7  8  94       
PG31   7402.720561  25213.503964  -3004.377042    -56.752467  5  5  5 134       
PG32  21623.667113  -2969.115336  15274.687724    125.351758  8  6  7 113       
EOF
